{
  "type": "FeatureCollection",
  "features": [
    {
      "type": "Feature",
      "properties": {
        "norad_id": 41019,
        "name": "GPS BIIF-11 (PRN 10)",
        "group": "gnss",
        "lat": -56.712157758448555,
        "lon": -57.311199555278826,
        "alt_km": 19952.23231121287,
        "timestamp": "2025-12-06T16:45:42.965671+00:00",
        "meta_object_name": "GPS BIIF-11 (PRN 10)",
        "meta_object_id": "2015-062A",
        "meta_epoch": "2025-12-04T19:59:07.703520",
        "meta_mean_motion": 2.0056698,
        "meta_eccentricity": 0.0110602,
        "meta_inclination": 56.8265,
        "meta_ra_of_asc_node": 38.3083,
        "meta_arg_of_pericenter": 229.7198,
        "meta_mean_anomaly": 129.3626,
        "meta_ephemeris_type": 0,
        "meta_classification_type": "U",
        "meta_norad_cat_id": 41019,
        "meta_element_set_no": 999,
        "meta_rev_at_epoch": 7393,
        "meta_bstar": 0,
        "meta_mean_motion_dot": -6.6e-07,
        "meta_mean_motion_ddot": 0,
        "tle_line1": "1 41019U 15062A   25338.83272805 -.00000066  00000+0  00000+0 0  9996",
        "tle_line2": "2 41019  56.8265  38.3083 0110602 229.7198 129.3626  2.00566980 73939"
      },
      "geometry": {
        "type": "Point",
        "coordinates": [
          -57.311199555278826,
          -56.712157758448555
        ]
      }
    },
    {
      "type": "Feature",
      "properties": {
        "norad_id": 41028,
        "name": "GSAT-15 (GAGAN/PRN 139)",
        "group": "gnss",
        "lat": 0.01056568234359678,
        "lon": 60.65361329426289,
        "alt_km": 35798.969057010494,
        "timestamp": "2025-12-06T16:45:42.965683+00:00",
        "meta_object_name": "GSAT-15 (GAGAN/PRN 139)",
        "meta_object_id": "2015-065A",
        "meta_epoch": "2025-12-06T03:16:38.682912",
        "meta_mean_motion": 1.00271233,
        "meta_eccentricity": 0.00030015,
        "meta_inclination": 0.0389,
        "meta_ra_of_asc_node": 95.2462,
        "meta_arg_of_pericenter": 141.3872,
        "meta_mean_anomaly": 341.2131,
        "meta_ephemeris_type": 0,
        "meta_classification_type": "U",
        "meta_norad_cat_id": 41028,
        "meta_element_set_no": 999,
        "meta_rev_at_epoch": 3686,
        "meta_bstar": 0,
        "meta_mean_motion_dot": -2.49e-06,
        "meta_mean_motion_ddot": 0,
        "tle_line1": "1 41028U 15065A   25340.13655883 -.00000249  00000+0  00000+0 0  9999",
        "tle_line2": "2 41028   0.0389  95.2462 0003001 141.3872 341.2131  1.00271233 36862"
      },
      "geometry": {
        "type": "Point",
        "coordinates": [
          60.65361329426289,
          0.01056568234359678
        ]
      }
    },
    {
      "type": "Feature",
      "properties": {
        "norad_id": 41174,
        "name": "GSAT0209 (GALILEO 12)",
        "group": "gnss",
        "lat": 29.28591854885964,
        "lon": 129.01188530746919,
        "alt_km": 23213.16825144818,
        "timestamp": "2025-12-06T16:45:42.965694+00:00",
        "meta_object_name": "GSAT0209 (GALILEO 12)",
        "meta_object_id": "2015-079A",
        "meta_epoch": "2025-12-01T22:43:10.411392",
        "meta_mean_motion": 1.70474306,
        "meta_eccentricity": 0.0002352,
        "meta_inclination": 55.7062,
        "meta_ra_of_asc_node": 106.6773,
        "meta_arg_of_pericenter": 357.4206,
        "meta_mean_anomaly": 2.5431,
        "meta_ephemeris_type": 0,
        "meta_classification_type": "U",
        "meta_norad_cat_id": 41174,
        "meta_element_set_no": 999,
        "meta_rev_at_epoch": 6141,
        "meta_bstar": 0,
        "meta_mean_motion_dot": 3.5e-07,
        "meta_mean_motion_ddot": 0,
        "tle_line1": "1 41174U 15079A   25335.94664828  .00000035  00000+0  00000+0 0  9990",
        "tle_line2": "2 41174  55.7062 106.6773 0002352 357.4206   2.5431  1.70474306 61412"
      },
      "geometry": {
        "type": "Point",
        "coordinates": [
          129.01188530746919,
          29.28591854885964
        ]
      }
    },
    {
      "type": "Feature",
      "properties": {
        "norad_id": 41175,
        "name": "GSAT0208 (GALILEO 11)",
        "group": "gnss",
        "lat": -54.7322463768493,
        "lon": 1.122151708943223,
        "alt_km": 23229.62569301976,
        "timestamp": "2025-12-06T16:45:42.965742+00:00",
        "meta_object_name": "GSAT0208 (GALILEO 11)",
        "meta_object_id": "2015-079B",
        "meta_epoch": "2025-12-05T16:28:14.683584",
        "meta_mean_motion": 1.70474159,
        "meta_eccentricity": 0.00019173,
        "meta_inclination": 55.707,
        "meta_ra_of_asc_node": 106.5718,
        "meta_arg_of_pericenter": 7.3332,
        "meta_mean_anomaly": 352.6208,
        "meta_ephemeris_type": 0,
        "meta_classification_type": "U",
        "meta_norad_cat_id": 41175,
        "meta_element_set_no": 999,
        "meta_rev_at_epoch": 6189,
        "meta_bstar": 0,
        "meta_mean_motion_dot": 8e-08,
        "meta_mean_motion_ddot": 0,
        "tle_line1": "1 41175U 15079B   25339.68628106  .00000008  00000+0  00000+0 0  9995",
        "tle_line2": "2 41175  55.7070 106.5718 0001917   7.3332 352.6208  1.70474159 61896"
      },
      "geometry": {
        "type": "Point",
        "coordinates": [
          1.122151708943223,
          -54.7322463768493
        ]
      }
    },
    {
      "type": "Feature",
      "properties": {
        "norad_id": 41241,
        "name": "IRNSS-1E",
        "group": "gnss",
        "lat": 8.782764077556868,
        "lon": 76.38694235592241,
        "alt_km": 35875.4288016314,
        "timestamp": "2025-12-06T16:45:42.965757+00:00",
        "meta_object_name": "IRNSS-1E",
        "meta_object_id": "2016-003A",
        "meta_epoch": "2025-12-05T15:56:23.100864",
        "meta_mean_motion": 1.00276837,
        "meta_eccentricity": 0.00219002,
        "meta_inclination": 32.8101,
        "meta_ra_of_asc_node": 62.5566,
        "meta_arg_of_pericenter": 186.7894,
        "meta_mean_anomaly": 176.2103,
        "meta_ephemeris_type": 0,
        "meta_classification_type": "U",
        "meta_norad_cat_id": 41241,
        "meta_element_set_no": 999,
        "meta_rev_at_epoch": 3614,
        "meta_bstar": 0,
        "meta_mean_motion_dot": -3.14e-06,
        "meta_mean_motion_ddot": 0,
        "tle_line1": "1 41241U 16003A   25339.66415626 -.00000314  00000+0  00000+0 0  9997",
        "tle_line2": "2 41241  32.8101  62.5566 0021900 186.7894 176.2103  1.00276837 36142"
      },
      "geometry": {
        "type": "Point",
        "coordinates": [
          76.38694235592241,
          8.782764077556868
        ]
      }
    },
    {
      "type": "Feature",
      "properties": {
        "norad_id": 41328,
        "name": "GPS BIIF-12 (PRN 32)",
        "group": "gnss",
        "lat": -21.268365997955154,
        "lon": -67.34474809103936,
        "alt_km": 19990.637444763637,
        "timestamp": "2025-12-06T16:45:42.965769+00:00",
        "meta_object_name": "GPS BIIF-12 (PRN 32)",
        "meta_object_id": "2016-007A",
        "meta_epoch": "2025-12-05T09:55:37.612128",
        "meta_mean_motion": 2.00560998,
        "meta_eccentricity": 0.00917952,
        "meta_inclination": 55.402,
        "meta_ra_of_asc_node": 97.1478,
        "meta_arg_of_pericenter": 243.3887,
        "meta_mean_anomaly": 115.6411,
        "meta_ephemeris_type": 0,
        "meta_classification_type": "U",
        "meta_norad_cat_id": 41328,
        "meta_element_set_no": 999,
        "meta_rev_at_epoch": 7195,
        "meta_bstar": 0,
        "meta_mean_motion_dot": -1.1e-07,
        "meta_mean_motion_ddot": 0,
        "tle_line1": "1 41328U 16007A   25339.41362977 -.00000011  00000+0  00000+0 0  9994",
        "tle_line2": "2 41328  55.4020  97.1478 0091795 243.3887 115.6411  2.00560998 71958"
      },
      "geometry": {
        "type": "Point",
        "coordinates": [
          -67.34474809103936,
          -21.268365997955154
        ]
      }
    },
    {
      "type": "Feature",
      "properties": {
        "norad_id": 41330,
        "name": "COSMOS 2514 (751)",
        "group": "gnss",
        "lat": -30.659919391051545,
        "lon": 155.55116810499544,
        "alt_km": 19102.666030220324,
        "timestamp": "2025-12-06T16:45:42.965780+00:00",
        "meta_object_name": "COSMOS 2514 (751)",
        "meta_object_id": "2016-008A",
        "meta_epoch": "2025-12-05T22:47:49.584480",
        "meta_mean_motion": 2.13102527,
        "meta_eccentricity": 0.00123649,
        "meta_inclination": 65.1377,
        "meta_ra_of_asc_node": 319.6365,
        "meta_arg_of_pericenter": 219.9676,
        "meta_mean_anomaly": 139.9355,
        "meta_ephemeris_type": 0,
        "meta_classification_type": "U",
        "meta_norad_cat_id": 41330,
        "meta_element_set_no": 999,
        "meta_rev_at_epoch": 7650,
        "meta_bstar": 0,
        "meta_mean_motion_dot": -4.9e-07,
        "meta_mean_motion_ddot": 0,
        "tle_line1": "1 41330U 16008A   25339.94987945 -.00000049  00000+0  00000+0 0  9995",
        "tle_line2": "2 41330  65.1377 319.6365 0012364 219.9676 139.9355  2.13102527 76507"
      },
      "geometry": {
        "type": "Point",
        "coordinates": [
          155.55116810499544,
          -30.659919391051545
        ]
      }
    }
  ]
}